[{"OBJECT_NAME":"TOMORROW-S2","OBJECT_ID":"2024-149T","EPOCH":"2026-03-09T18:02:42.746496","MEAN_MOTION":15.30674935,"ECCENTRICITY":0.0001648,"INCLINATION":97.3857,"RA_OF_ASC_NODE":150.0385,"ARG_OF_PERICENTER":234.3331,"MEAN_ANOMALY":125.7757,"EPHEMERIS_TYPE":0,"CLASSIFICATION_TYPE":"U","NORAD_CAT_ID":60485,"ELEMENT_SET_NO":999,"REV_AT_EPOCH":8686,"BSTAR":0.00027683033,"MEAN_MOTION_DOT":8.133e-5,"MEAN_MOTION_DDOT":0},{"OBJECT_NAME":"STARLINK-32389","OBJECT_ID":"2024-184T","EPOCH":"2026-03-09T03:31:42.783744","MEAN_MOTION":15.30190121,"ECCENTRICITY":9.544e-5,"INCLINATION":53.1625,"RA_OF_ASC_NODE":16.4831,"ARG_OF_PERICENTER":87.2231,"MEAN_ANOMALY":272.8879,"EPHEMERIS_TYPE":0,"CLASSIFICATION_TYPE":"U","NORAD_CAT_ID":61549,"ELEMENT_SET_NO":999,"REV_AT_EPOCH":7842,"BSTAR":-9.07574e-6,"MEAN_MOTION_DOT":-6.28e-6,"MEAN_MOTION_DDOT":0}]
