TOMORROW-S2             
1 60485U 24149T   26068.75188364  .00008133  00000+0  27683-3 0  9990
2 60485  97.3857 150.0385 0001648 234.3331 125.7757 15.30674935 86869
STARLINK-32389          
1 61549U 24184T   26068.14702296 -.00000628  00000+0 -90757-5 0  9997
2 61549  53.1625  16.4831 0000954  87.2231 272.8879 15.30190121 78420
